O3B MPOWER F1           
1 54755U 22174A   24236.53931084 -.00000019  00000+0  00000+0 0  9991
2 54755   0.0574 346.2056 0006669 160.7094 274.8977  5.00113725 32209
